NORAD_CAT_ID,OBJECT_NAME,OBJECT_TYPE,EPOCH,MEAN_MOTION,ECCENTRICITY,INCLINATION,RA_OF_ASC_NODE,ARG_OF_PERICENTER,MEAN_ANOMALY,BSTAR,MEAN_MOTION_DOT,MEAN_MOTION_DDOT,TLE_LINE0,TLE_LINE1,TLE_LINE2,SEMIMAJOR_AXIS,PERIOD,APOGEE,PERIGEE,DECAYED
51111.0,STARLINK-3173,PAYLOAD,2022-06-23 12:54:06,15.08838796,0.0001619,53.2152,252.6277,56.7547,303.36,2.782e-05,1.55e-06,0.0,0 STARLINK-3173,1 51111U 22005H   22174.53757643  .00000155  00000-0  27820-4 0  9998,2 51111  53.2152 252.6277 0001619  56.7547 303.3600 15.08838796 24298,6917.884,95.438,540.869,538.629,0.0
51111.0,STARLINK-3173,PAYLOAD,2022-06-24 04:47:57,15.08845791,0.0001639,53.2156,249.6534,55.0086,305.106,7.9135e-05,9.72e-06,0.0,0 STARLINK-3173,1 51111U 22005H   22175.19996903  .00000972  00000-0  79135-4 0  9998,2 51111  53.2156 249.6534 0001639  55.0086 305.1060 15.08845791 25504,6917.863,95.437,540.862,538.594,0.0
51111.0,STARLINK-3173,PAYLOAD,2022-06-24 11:09:29,15.08848466,0.0001622,53.2156,248.4639,55.3527,304.7617,9.7061e-05,1.257e-05,0.0,0 STARLINK-3173,1 51111U 22005H   22175.46492571  .00001257  00000-0  97061-4 0  9995,2 51111  53.2156 248.4639 0001622  55.3527 304.7617 15.08848466 24438,6917.855,95.437,540.842,538.597,0.0
51111.0,STARLINK-3173,PAYLOAD,2022-06-24 23:52:35,15.08835341,0.0001575999999999,53.2157,246.0849,56.9017,303.2126,-1.8074e-05,-5.76e-06,0.0,0 STARLINK-3173,1 51111U 22005H   22175.99485639 -.00000576  00000-0 -18074-4 0  9992,2 51111  53.2157 246.0849 0001576  56.9017 303.2126 15.08835341 25624,6917.895,95.438,540.85,538.669,0.0
51111.0,STARLINK-3173,PAYLOAD,2022-06-25 11:00:17,15.08836201,0.0001638,53.2157,244.0036,55.9982,304.1166,6.079600000000001e-05,6.8e-06,0.0,0 STARLINK-3173,1 51111U 22005H   22176.45853467  .00000680  00000-0  60796-4 0  9994,2 51111  53.2157 244.0036 0001638  55.9982 304.1166 15.08836201 24583,6917.892,95.438,540.89,538.624,0.0
51111.0,STARLINK-3173,PAYLOAD,2022-06-26 04:29:30,15.08850133,0.0001675999999999,53.2156,240.7324,56.2595,303.8557,7.4155e-05,8.93e-06,0.0,0 STARLINK-3173,1 51111U 22005H   22177.18716409  .00000893  00000-0  74155-4 0  9999,2 51111  53.2156 240.7324 0001676  56.2595 303.8557 15.08850133 25807,6917.849,95.437,540.874,538.555,0.0
51111.0,STARLINK-3173,PAYLOAD,2022-06-26 10:51:03,15.08851712,0.0001696,53.2155,239.5432,56.5581,303.5573,8.308299999999999e-05,1.035e-05,0.0,0 STARLINK-3173,1 51111U 22005H   22177.45212114  .00001035  00000-0  83083-4 0  9992,2 51111  53.2155 239.5432 0001696  56.5581 303.5573 15.08851712 24732,6917.845,95.437,540.883,538.536,0.0
51111.0,STARLINK-3173,PAYLOAD,2022-06-27 02:44:55,15.08855549,0.0002065,53.2154,236.5705,53.6184,306.4998,-0.0001853,-3.237e-05,0.0,0 STARLINK-3173,1 51111U 22005H   22178.11452739 -.00003237  00000-0 -18530-3 0  9997,2 51111  53.2154 236.5705 0002065  53.6184 306.4998 15.08855549 25948,6917.833000000001,95.437,541.126,538.269,0.0
51111.0,STARLINK-3173,PAYLOAD,2022-06-27 10:41:51,15.08837813,0.0001754,53.215,235.0819,58.5659,301.5505,4.5321e-05,4.33e-06,0.0,0 STARLINK-3173,1 51111U 22005H   22178.44573045  .00000433  00000-0  45321-4 0  9999,2 51111  53.2150 235.0819 0001754  58.5659 301.5505 15.08837813 25998,6917.887,95.438,540.965,538.539,0.0
51111.0,STARLINK-3173,PAYLOAD,2022-06-27 20:14:10,15.08828108,0.0001768,53.2151,233.2979,57.4367,302.6796,-8.659299999999999e-05,-1.666e-05,0.0,0 STARLINK-3173,1 51111U 22005H   22178.84318141 -.00001666  00000-0 -86593-4 0  9994,2 51111  53.2151 233.2979 0001768  57.4367 302.6796 15.08828108 24940,6917.917,95.438,541.005,538.559,0.0
51111.0,STARLINK-3173,PAYLOAD,2022-06-28 02:35:43,15.088327800000002,0.0001795,53.2151,232.1083,57.8079,302.3087,-9.1643e-05,-1.746e-05,0.0,0 STARLINK-3173,1 51111U 22005H   22179.10813998 -.00001746  00000-0 -91643-4 0  9995,2 51111  53.2151 232.1083 0001795  57.8079 302.3087 15.08832780 26097,6917.901999999999,95.438,541.009,538.526,0.0
51111.0,STARLINK-3173,PAYLOAD,2022-06-28 08:57:15,15.0883323,0.0001763,53.2152,230.919,57.2526,302.8636,-9.1282e-05,-1.74e-05,0.0,0 STARLINK-3173,1 51111U 22005H   22179.37310049 -.00001740  00000-0 -91282-4 0  9996,2 51111  53.2152 230.9190 0001763  57.2526 302.8636 15.08833230 25027,6917.901,95.438,540.986,538.5459999999998,0.0
51111.0,STARLINK-3173,PAYLOAD,2022-06-28 13:43:25,15.08833705,0.0001816,53.2151,230.0268,57.8279,302.289,-8.4887e-05,-1.639e-05,0.0,0 STARLINK-3173,1 51111U 22005H   22179.57182089 -.00001639  00000-0 -84887-4 0  9999,2 51111  53.2151 230.0268 0001816  57.8279 302.2890 15.08833705 25059,6917.9,95.438,541.021,538.508,0.0
51111.0,STARLINK-3173,PAYLOAD,2022-06-29 10:23:26,15.08832478,0.0001821,53.215,226.1609,57.1471,302.9696,4.4159e-07,-2.81e-06,0.0,0 STARLINK-3173,1 51111U 22005H   22180.43294392 -.00000281  00000-0  44159-6 0  9998,2 51111  53.2150 226.1609 0001821  57.1471 302.9696 15.08832478 25187,6917.903,95.438,541.028,538.509,0.0
51111.0,STARLINK-3173,PAYLOAD,2022-06-30 11:49:36,15.08831424,0.0001897,53.2151,221.403,58.368,301.7497,7.486e-05,9.03e-06,0.0,0 STARLINK-3173,1 51111U 22005H   22181.49278895  .00000903  00000-0  74860-4 0  9995,2 51111  53.2151 221.4030 0001897  58.3680 301.7497 15.08831424 25346,6917.906999999997,95.438,541.0840000000002,538.4590000000002,0.0
51111.0,STARLINK-3173,PAYLOAD,2022-06-30 19:46:32,15.08833188,0.0001902,53.2151,219.9162,57.8726,302.2451,6.878e-05,8.06e-06,0.0,0 STARLINK-3173,1 51111U 22005H   22181.82398940  .00000806  00000-0  68780-4 0  9992,2 51111  53.2151 219.9162 0001902  57.8726 302.2451 15.08833188 25396,6917.901,95.438,541.082,538.45,0.0
51111.0,STARLINK-3173,PAYLOAD,2022-07-01 11:40:23,15.08838091,0.0001946,53.2157,216.9432,57.968,302.1501,5.993e-05,6.66e-06,0.0,0 STARLINK-3173,1 51111U 22005H   22182.48638829  .00000666  00000-0  59930-4 0  9999,2 51111  53.2157 216.9432 0001946  57.9680 302.1501 15.08838091 25491,6917.886,95.438,541.097,538.405,0.0
51111.0,STARLINK-3173,PAYLOAD,2022-07-01 19:37:19,15.08839807,0.0001955,53.2157,215.4564,58.1448,301.9734,6.8131e-05,7.96e-06,0.0,0 STARLINK-3173,1 51111U 22005H   22182.81758695  .00000796  00000-0  68131-4 0  9997,2 51111  53.2157 215.4564 0001955  58.1448 301.9734 15.08839807 26656,6917.880999999999,95.438,541.0980000000002,538.394,0.0
51111.0,STARLINK-3173,PAYLOAD,2022-07-02 08:20:24,15.08842123,0.0001959,53.2163,213.0776,58.4619,301.6564,7.2745e-05,8.7e-06,0.0,0 STARLINK-3173,1 51111U 22005H   22183.34750488  .00000870  00000-0  72745-4 0  9997,2 51111  53.2163 213.0776 0001959  58.4619 301.6564 15.08842123 25628,6917.874,95.437,541.094,538.384,0.0
51111.0,STARLINK-3173,PAYLOAD,2022-07-03 11:21:58,15.08831446,0.0001917,53.2168,208.0216,60.4523,299.666,-6.080600000000003e-05,-1.256e-05,0.0,0 STARLINK-3173,1 51111U 22005H   22184.47359695 -.00001256  00000-0 -60806-4 0  9993,2 51111  53.2168 208.0216 0001917  60.4523 299.6660 15.08831446 25794,6917.906999999997,95.438,541.0980000000002,538.445,0.0
51111.0,STARLINK-3173,PAYLOAD,2022-07-04 09:37:22,15.08833359,0.000192,53.2167,203.8587,60.6882,299.4302,-4.7685e-05,-1.047e-05,0.0,0 STARLINK-3173,1 51111U 22005H   22185.40095893 -.00001047  00000-0 -47685-4 0  9992,2 51111  53.2167 203.8587 0001920  60.6882 299.4302 15.08833359 27047,6917.901,95.438,541.094,538.437,0.0
51111.0,STARLINK-3173,PAYLOAD,2022-07-04 11:12:46,15.08832953,0.0001925,53.2167,203.5614,60.573,299.5454,-4.9645e-05,-1.078e-05,0.0,0 STARLINK-3173,1 51111U 22005H   22185.46719959 -.00001078  00000-0 -49645-4 0  9996,2 51111  53.2167 203.5614 0001925  60.5730 299.5454 15.08832953 25946,6917.901999999999,95.438,541.099,538.435,0.0
51111.0,STARLINK-3173,PAYLOAD,2022-07-05 07:52:47,15.08830149,0.0001955,53.2168,199.6962,57.7087,302.4095,5.8173e-05,6.38e-06,0.0,0 STARLINK-3173,1 51111U 22005H   22186.32832271  .00000638  00000-0  58173-4 0  9990,2 51111  53.2168 199.6962 0001955  57.7087 302.4095 15.08830149 26079,6917.91,95.438,541.128,538.423,0.0
51111.0,STARLINK-3173,PAYLOAD,2022-07-05 17:25:06,15.08830246,0.0001979,53.2168,197.912,57.6589,302.4595,5.2635e-05,5.49e-06,0.0,0 STARLINK-3173,1 51111U 22005H   22186.72576537  .00000549  00000-0  52635-4 0  9992,2 51111  53.2168 197.9120 0001979  57.6589 302.4595 15.08830246 27241,6917.91,95.438,541.144,538.406,0.0
51111.0,STARLINK-3173,PAYLOAD,2022-07-06 10:54:20,15.08833623,0.0002,53.2167,194.641,58.3812,301.7375,5.1064e-05,5.24e-06,0.0,0 STARLINK-3173,1 51111U 22005H   22187.45440710  .00000524  00000-0  51064-4 0  9994,2 51111  53.2167 194.6410 0002000  58.3812 301.7375 15.08833623 26248,6917.9,95.438,541.148,538.381,0.0
51111.0,STARLINK-3173,PAYLOAD,2022-07-06 17:15:53,15.08835191,0.0002004,53.2167,193.4516,58.4635,301.6553,5.6789e-05,6.16e-06,0.0,0 STARLINK-3173,1 51111U 22005H   22187.71936687  .00000616  00000-0  56789-4 0  9997,2 51111  53.2167 193.4516 0002004  58.4635 301.6553 15.08835191 26283,6917.895,95.438,541.146,538.374,0.0
51111.0,STARLINK-3173,PAYLOAD,2022-07-07 02:48:12,15.08837007,0.0002021,53.2167,191.6673,58.8804,301.2386,4.8773e-05,4.88e-06,0.0,0 STARLINK-3173,1 51111U 22005H   22188.11680707  .00000488  00000-0  48773-4 0  9992,2 51111  53.2167 191.6673 0002021  58.8804 301.2386 15.08837007 27456,6917.89,95.438,541.153,538.356,0.0
51111.0,STARLINK-3173,PAYLOAD,2022-07-07 07:34:21,15.08837566,0.0002029,53.2167,190.7752,59.0633,301.0559,5.1017e-05,5.24e-06,0.0,0 STARLINK-3173,1 51111U 22005H   22188.31552704  .00000524  00000-0  51017-4 0  9995,2 51111  53.2167 190.7752 0002029  59.0633 301.0559 15.08837566 26375,6917.888000000001,95.438,541.156,538.349,0.0
51111.0,STARLINK-3173,PAYLOAD,2022-07-07 17:06:40,15.0883996,0.0002066,53.2168,188.991,58.429,301.6904,6.276199999999999e-05,7.11e-06,0.0,0 STARLINK-3173,1 51111U 22005H   22188.71296567  .00000711  00000-0  62762-4 0  9998,2 51111  53.2168 188.9910 0002066  58.4290 301.6904 15.08839960 26431,6917.880999999999,95.438,541.175,538.316,0.0
